[{"OBJECT_NAME":"IRIDIUM 140","OBJECT_ID":"2018-030D","EPOCH":"2026-03-09T17:10:03.364608","MEAN_MOTION":14.34217721,"ECCENTRICITY":0.00019229,"INCLINATION":86.4003,"RA_OF_ASC_NODE":332.0359,"ARG_OF_PERICENTER":85.7585,"MEAN_ANOMALY":274.3831,"EPHEMERIS_TYPE":0,"CLASSIFICATION_TYPE":"U","NORAD_CAT_ID":43252,"ELEMENT_SET_NO":999,"REV_AT_EPOCH":41593,"BSTAR":-8.82061e-7,"MEAN_MOTION_DOT":1.7e-7,"MEAN_MOTION_DDOT":0},{"OBJECT_NAME":"FENGYUN 1C DEB","OBJECT_ID":"1999-025EGY","EPOCH":"2026-03-07T11:57:00.852192","MEAN_MOTION":14.29804722,"ECCENTRICITY":0.002018,"INCLINATION":98.7556,"RA_OF_ASC_NODE":146.0622,"ARG_OF_PERICENTER":177.0547,"MEAN_ANOMALY":183.0757,"EPHEMERIS_TYPE":0,"CLASSIFICATION_TYPE":"U","NORAD_CAT_ID":37430,"ELEMENT_SET_NO":999,"REV_AT_EPOCH":62912,"BSTAR":0.00220459,"MEAN_MOTION_DOT":5.637e-5,"MEAN_MOTION_DDOT":0}]
